STARLINK-36537          
1 67516U 26012Z   26085.36446178  .00033328  00000+0  12136-2 0  9999
2 67516  42.9988 220.0789 0001326 259.6263 100.4440 15.27621745 10318
STARLINK-36544          
1 67517U 26012AA  26085.37087666  .00032689  00000+0  11911-2 0  9993
2 67517  42.9998 220.1298 0001153 269.6470  90.4250 15.27608341 10319
STARLINK-36412          
1 67518U 26012AB  26085.35288654  .00026234  00000+0  95864-3 0  9991
2 67518  42.9996 219.9949 0000682 269.0828  90.9946 15.27607634 10315
STARLINK-36415          
1 67519U 26012AC  26085.34902701  .00029238  00000+0  10668-2 0  9992
2 67519  42.9942 219.9599 0000251 252.8972 107.1852 15.27611244 10319
STARLINK-36547          
1 67520U 26012AD  26085.42212664  .00022798  00000+0  83503-3 0  9998
2 67520  43.0017 219.6541 0001453 275.3579  84.7107 15.27595412 10320
STARLINK-36444          
1 67521U 26012AE  26084.77211757  .00023317  00000+0  85352-3 0  9990
2 67521  43.0050 223.3802 0001551 287.5078  72.5604 15.27605372 10221
STARLINK-36587          
1 67532U 26014A   26085.24763676  .00119577  00000+0  79002-3 0  9998
2 67532  97.2843 331.0536 0001492  80.3910 279.7524 15.75229885 11185
STARLINK-36417          
1 67533U 26014B   26085.43434008  .00296119  00000+0  19141-2 0  9999
2 67533  97.2852 331.1033 0002108  88.7972 271.3535 15.75238892 11205
STARLINK-36576          
1 67534U 26014C   26085.50002314 -.00043888  00000+0 -29476-3 0  9997
2 67534  97.2851 331.2610 0001702 105.8954 110.4518 15.75198464  5822
STARLINK-36574          
1 67535U 26014D   26085.19612226  .00191684  00000+0  12583-2 0  9998
2 67535  97.2844 330.9699 0004520  66.7885 293.3856 15.75163312 11172
STARLINK-36572          
1 67536U 26014E   26085.42058049  .00289249  00000+0  18751-2 0  9990
2 67536  97.2868 331.1225 0002746  93.3882 266.7698 15.75189884 11202
STARLINK-36561          
1 67537U 26014F   26085.42657700  .00259814  00000+0  16897-2 0  9994
2 67537  97.2881 331.1136 0002120  71.3695 288.7800 15.75197327 11203
STARLINK-36397          
1 67538U 26014G   26085.23986971  .00244410  00000+0  15973-2 0  9999
2 67538  97.2848 330.9081 0001539  89.1761 270.9680 15.75127541 11173
STARLINK-36573          
1 67539U 26014H   26085.19998820 -.00011776  00000+0 -78125-4 0  9990
2 67539  97.2854 330.9643 0001649 105.1680 254.9768 15.75207573 11179
STARLINK-36585          
1 67540U 26014J   26085.42234325  .00220373  00000+0  14408-2 0  9996
2 67540  97.2888 331.1186 0002396  73.0009 287.1519 15.75184938 11206
STARLINK-36579          
1 67541U 26014K   26085.41457913  .00246798  00000+0  16074-2 0  9996
2 67541  97.2905 331.1295 0002542  82.0387 278.1167 15.75200212 11203
