[{"OBJECT_NAME":"STARLINK-36537","OBJECT_ID":"2026-012Z","EPOCH":"2026-03-26T08:44:49.497792","MEAN_MOTION":15.27621745,"ECCENTRICITY":0.0001326,"INCLINATION":42.9988,"RA_OF_ASC_NODE":220.0789,"ARG_OF_PERICENTER":259.6263,"MEAN_ANOMALY":100.444,"EPHEMERIS_TYPE":0,"CLASSIFICATION_TYPE":"U","NORAD_CAT_ID":67516,"ELEMENT_SET_NO":999,"REV_AT_EPOCH":1031,"BSTAR":0.0012136,"MEAN_MOTION_DOT":0.00033328,"MEAN_MOTION_DDOT":0},{"OBJECT_NAME":"STARLINK-36544","OBJECT_ID":"2026-012AA","EPOCH":"2026-03-26T08:54:03.743424","MEAN_MOTION":15.27608341,"ECCENTRICITY":0.0001153,"INCLINATION":42.9998,"RA_OF_ASC_NODE":220.1298,"ARG_OF_PERICENTER":269.647,"MEAN_ANOMALY":90.425,"EPHEMERIS_TYPE":0,"CLASSIFICATION_TYPE":"U","NORAD_CAT_ID":67517,"ELEMENT_SET_NO":999,"REV_AT_EPOCH":1031,"BSTAR":0.0011911,"MEAN_MOTION_DOT":0.00032689,"MEAN_MOTION_DDOT":0},{"OBJECT_NAME":"STARLINK-36412","OBJECT_ID":"2026-012AB","EPOCH":"2026-03-26T08:28:09.397056","MEAN_MOTION":15.27607634,"ECCENTRICITY":6.82e-5,"INCLINATION":42.9996,"RA_OF_ASC_NODE":219.9949,"ARG_OF_PERICENTER":269.0828,"MEAN_ANOMALY":90.9946,"EPHEMERIS_TYPE":0,"CLASSIFICATION_TYPE":"U","NORAD_CAT_ID":67518,"ELEMENT_SET_NO":999,"REV_AT_EPOCH":1031,"BSTAR":0.00095864,"MEAN_MOTION_DOT":0.00026234,"MEAN_MOTION_DDOT":0},{"OBJECT_NAME":"STARLINK-36415","OBJECT_ID":"2026-012AC","EPOCH":"2026-03-26T08:22:35.933664","MEAN_MOTION":15.27611244,"ECCENTRICITY":2.51e-5,"INCLINATION":42.9942,"RA_OF_ASC_NODE":219.9599,"ARG_OF_PERICENTER":252.8972,"MEAN_ANOMALY":107.1852,"EPHEMERIS_TYPE":0,"CLASSIFICATION_TYPE":"U","NORAD_CAT_ID":67519,"ELEMENT_SET_NO":999,"REV_AT_EPOCH":1031,"BSTAR":0.0010668,"MEAN_MOTION_DOT":0.00029238,"MEAN_MOTION_DDOT":0},{"OBJECT_NAME":"STARLINK-36547","OBJECT_ID":"2026-012AD","EPOCH":"2026-03-26T10:07:51.741696","MEAN_MOTION":15.27595412,"ECCENTRICITY":0.0001453,"INCLINATION":43.0017,"RA_OF_ASC_NODE":219.6541,"ARG_OF_PERICENTER":275.3579,"MEAN_ANOMALY":84.7107,"EPHEMERIS_TYPE":0,"CLASSIFICATION_TYPE":"U","NORAD_CAT_ID":67520,"ELEMENT_SET_NO":999,"REV_AT_EPOCH":1032,"BSTAR":0.00083503,"MEAN_MOTION_DOT":0.00022798,"MEAN_MOTION_DDOT":0},{"OBJECT_NAME":"STARLINK-36444","OBJECT_ID":"2026-012AE","EPOCH":"2026-03-25T18:31:50.958048","MEAN_MOTION":15.27605372,"ECCENTRICITY":0.00015518,"INCLINATION":43.005,"RA_OF_ASC_NODE":223.3802,"ARG_OF_PERICENTER":287.5078,"MEAN_ANOMALY":72.5604,"EPHEMERIS_TYPE":0,"CLASSIFICATION_TYPE":"U","NORAD_CAT_ID":67521,"ELEMENT_SET_NO":999,"REV_AT_EPOCH":1022,"BSTAR":0.00085352012,"MEAN_MOTION_DOT":0.00023317,"MEAN_MOTION_DDOT":0},{"OBJECT_NAME":"STARLINK-36587","OBJECT_ID":"2026-014A","EPOCH":"2026-03-26T05:56:35.816064","MEAN_MOTION":15.75229885,"ECCENTRICITY":0.0001492,"INCLINATION":97.2843,"RA_OF_ASC_NODE":331.0536,"ARG_OF_PERICENTER":80.391,"MEAN_ANOMALY":279.7524,"EPHEMERIS_TYPE":0,"CLASSIFICATION_TYPE":"U","NORAD_CAT_ID":67532,"ELEMENT_SET_NO":999,"REV_AT_EPOCH":1118,"BSTAR":0.00079002,"MEAN_MOTION_DOT":0.00119577,"MEAN_MOTION_DDOT":0},{"OBJECT_NAME":"STARLINK-36417","OBJECT_ID":"2026-014B","EPOCH":"2026-03-26T10:25:26.982912","MEAN_MOTION":15.75238892,"ECCENTRICITY":0.0002108,"INCLINATION":97.2852,"RA_OF_ASC_NODE":331.1033,"ARG_OF_PERICENTER":88.7972,"MEAN_ANOMALY":271.3535,"EPHEMERIS_TYPE":0,"CLASSIFICATION_TYPE":"U","NORAD_CAT_ID":67533,"ELEMENT_SET_NO":999,"REV_AT_EPOCH":1120,"BSTAR":0.0019141,"MEAN_MOTION_DOT":0.00296119,"MEAN_MOTION_DDOT":0},{"OBJECT_NAME":"STARLINK-36576","OBJECT_ID":"2026-014C","EPOCH":"2026-03-26T12:00:01.999296","MEAN_MOTION":15.75198464,"ECCENTRICITY":0.0001702,"INCLINATION":97.2851,"RA_OF_ASC_NODE":331.261,"ARG_OF_PERICENTER":105.8954,"MEAN_ANOMALY":110.4518,"EPHEMERIS_TYPE":0,"CLASSIFICATION_TYPE":"U","NORAD_CAT_ID":67534,"ELEMENT_SET_NO":999,"REV_AT_EPOCH":582,"BSTAR":-0.00029476,"MEAN_MOTION_DOT":-0.00043888,"MEAN_MOTION_DDOT":0},{"OBJECT_NAME":"STARLINK-36574","OBJECT_ID":"2026-014D","EPOCH":"2026-03-26T04:42:24.963264","MEAN_MOTION":15.75163312,"ECCENTRICITY":0.00045203,"INCLINATION":97.2844,"RA_OF_ASC_NODE":330.9699,"ARG_OF_PERICENTER":66.7885,"MEAN_ANOMALY":293.3856,"EPHEMERIS_TYPE":0,"CLASSIFICATION_TYPE":"U","NORAD_CAT_ID":67535,"ELEMENT_SET_NO":999,"REV_AT_EPOCH":1117,"BSTAR":0.0012583405,"MEAN_MOTION_DOT":0.00191684,"MEAN_MOTION_DDOT":0},{"OBJECT_NAME":"STARLINK-36572","OBJECT_ID":"2026-014E","EPOCH":"2026-03-26T10:05:38.154336","MEAN_MOTION":15.75189884,"ECCENTRICITY":0.0002746,"INCLINATION":97.2868,"RA_OF_ASC_NODE":331.1225,"ARG_OF_PERICENTER":93.3882,"MEAN_ANOMALY":266.7698,"EPHEMERIS_TYPE":0,"CLASSIFICATION_TYPE":"U","NORAD_CAT_ID":67536,"ELEMENT_SET_NO":999,"REV_AT_EPOCH":1120,"BSTAR":0.0018751,"MEAN_MOTION_DOT":0.00289249,"MEAN_MOTION_DDOT":0},{"OBJECT_NAME":"STARLINK-36561","OBJECT_ID":"2026-014F","EPOCH":"2026-03-26T10:14:16.252800","MEAN_MOTION":15.75197327,"ECCENTRICITY":0.000212,"INCLINATION":97.2881,"RA_OF_ASC_NODE":331.1136,"ARG_OF_PERICENTER":71.3695,"MEAN_ANOMALY":288.78,"EPHEMERIS_TYPE":0,"CLASSIFICATION_TYPE":"U","NORAD_CAT_ID":67537,"ELEMENT_SET_NO":999,"REV_AT_EPOCH":1120,"BSTAR":0.0016897,"MEAN_MOTION_DOT":0.00259814,"MEAN_MOTION_DDOT":0},{"OBJECT_NAME":"STARLINK-36397","OBJECT_ID":"2026-014G","EPOCH":"2026-03-26T05:45:24.742944","MEAN_MOTION":15.75127541,"ECCENTRICITY":0.0001539,"INCLINATION":97.2848,"RA_OF_ASC_NODE":330.9081,"ARG_OF_PERICENTER":89.1761,"MEAN_ANOMALY":270.968,"EPHEMERIS_TYPE":0,"CLASSIFICATION_TYPE":"U","NORAD_CAT_ID":67538,"ELEMENT_SET_NO":999,"REV_AT_EPOCH":1117,"BSTAR":0.0015973,"MEAN_MOTION_DOT":0.0024441,"MEAN_MOTION_DDOT":0},{"OBJECT_NAME":"STARLINK-36573","OBJECT_ID":"2026-014H","EPOCH":"2026-03-26T04:47:58.980480","MEAN_MOTION":15.75207573,"ECCENTRICITY":0.00016497,"INCLINATION":97.2854,"RA_OF_ASC_NODE":330.9643,"ARG_OF_PERICENTER":105.168,"MEAN_ANOMALY":254.9768,"EPHEMERIS_TYPE":0,"CLASSIFICATION_TYPE":"U","NORAD_CAT_ID":67539,"ELEMENT_SET_NO":999,"REV_AT_EPOCH":1117,"BSTAR":-7.8125029e-5,"MEAN_MOTION_DOT":-0.00011776,"MEAN_MOTION_DDOT":0},{"OBJECT_NAME":"STARLINK-36585","OBJECT_ID":"2026-014J","EPOCH":"2026-03-26T10:08:10.456800","MEAN_MOTION":15.75184938,"ECCENTRICITY":0.0002396,"INCLINATION":97.2888,"RA_OF_ASC_NODE":331.1186,"ARG_OF_PERICENTER":73.0009,"MEAN_ANOMALY":287.1519,"EPHEMERIS_TYPE":0,"CLASSIFICATION_TYPE":"U","NORAD_CAT_ID":67540,"ELEMENT_SET_NO":999,"REV_AT_EPOCH":1120,"BSTAR":0.0014408,"MEAN_MOTION_DOT":0.00220373,"MEAN_MOTION_DDOT":0},{"OBJECT_NAME":"STARLINK-36579","OBJECT_ID":"2026-014K","EPOCH":"2026-03-26T09:56:59.636832","MEAN_MOTION":15.75200212,"ECCENTRICITY":0.0002542,"INCLINATION":97.2905,"RA_OF_ASC_NODE":331.1295,"ARG_OF_PERICENTER":82.0387,"MEAN_ANOMALY":278.1167,"EPHEMERIS_TYPE":0,"CLASSIFICATION_TYPE":"U","NORAD_CAT_ID":67541,"ELEMENT_SET_NO":999,"REV_AT_EPOCH":1120,"BSTAR":0.0016074,"MEAN_MOTION_DOT":0.00246798,"MEAN_MOTION_DDOT":0}]
